{"type": "FeatureCollection", "features": [ {"type": "Feature", "properties": {"norad_id": 41785, "name": "ALSAT 1B", "group": "resource", "lat": 42.01490920946616, "lon": -1.4507137894010305, "alt_km": 645.1753377301611, "timestamp": "2025-12-20T03:42:47.049538+00:00", "meta": {"OBJECT_NAME": "ALSAT 1B", "OBJECT_ID": "2016-059C", "EPOCH": "2025-12-19T20:59:43.927872", "MEAN_MOTION": 14.72082591, "ECCENTRICITY": 0.001083, "INCLINATION": 97.7808, "RA_OF_ASC_NODE": 5.3571, "ARG_OF_PERICENTER": 83.2582, "MEAN_ANOMALY": 276.9858, "EPHEMERIS_TYPE": 0, "CLASSIFICATION_TYPE": "U", "NORAD_CAT_ID": 41785, "ELEMENT_SET_NO": 999, "REV_AT_EPOCH": 49419, "BSTAR": 7.4916e-05, "MEAN_MOTION_DOT": 4.24e-06, "MEAN_MOTION_DDOT": 0}, "tle": {"line1": "1 41785U 16059C   25353.87481398  .00000424  00000+0  74916-4 0  9992", "line2": "2 41785  97.7808   5.3571 0010830  83.2582 276.9858 14.72082591494198"}}, "geometry": {"type": "Point", "coordinates": [-1.4507137894010305, 42.01490920946616]}}, {"type": "Feature", "properties": {"norad_id": 41787, "name": "PATHFINDER 1", "group": "resource", "lat": -5.766742364965799, "lon": -2.6212365721001905, "alt_km": 664.1401781043933, "timestamp": "2025-12-20T03:42:47.049548+00:00", "meta": {"OBJECT_NAME": "PATHFINDER 1", "OBJECT_ID": "2016-059E", "EPOCH": "2025-12-19T19:33:23.141952", "MEAN_MOTION": 14.67332694, "ECCENTRICITY": 0.0029858, "INCLINATION": 97.8135, "RA_OF_ASC_NODE": 356.2601, "ARG_OF_PERICENTER": 59.673, "MEAN_ANOMALY": 300.7423, "EPHEMERIS_TYPE": 0, "CLASSIFICATION_TYPE": "U", "NORAD_CAT_ID": 41787, "ELEMENT_SET_NO": 999, "REV_AT_EPOCH": 49340, "BSTAR": 0.00010611, "MEAN_MOTION_DOT": 5.56e-06, "MEAN_MOTION_DDOT": 0}, "tle": {"line1": "1 41787U 16059E   25353.81485118  .00000556  00000+0  10611-3 0  9999", "line2": "2 41787  97.8135 356.2601 0029858  59.6730 300.7423 14.67332694493401"}}, "geometry": {"type": "Point", "coordinates": [-2.6212365721001905, -5.766742364965799]}}, {"type": "Feature", "properties": {"norad_id": 41790, "name": "SCATSAT 1", "group": "resource", "lat": -61.889044518738196, "lon": 66.46957460476705, "alt_km": 678.4165608327021, "timestamp": "2025-12-20T03:42:47.049559+00:00", "meta": {"OBJECT_NAME": "SCATSAT 1", "OBJECT_ID": "2016-059H", "EPOCH": "2025-12-19T15:00:35.016192", "MEAN_MOTION": 14.7895767, "ECCENTRICITY": 0.0056438, "INCLINATION": 98.1455, "RA_OF_ASC_NODE": 50.3814, "ARG_OF_PERICENTER": 106.2754, "MEAN_ANOMALY": 254.4674, "EPHEMERIS_TYPE": 0, "CLASSIFICATION_TYPE": "U", "NORAD_CAT_ID": 41790, "ELEMENT_SET_NO": 999, "REV_AT_EPOCH": 7504, "BSTAR": 0.00014584, "MEAN_MOTION_DOT": 1.049e-05, "MEAN_MOTION_DDOT": 0}, "tle": {"line1": "1 41790U 16059H   25353.62540528  .00001049  00000+0  14584-3 0  9990", "line2": "2 41790  98.1455  50.3814 0056438 106.2754 254.4674 14.78957670 75049"}}, "geometry": {"type": "Point", "coordinates": [66.46957460476705, -61.889044518738196]}}, {"type": "Feature", "properties": {"norad_id": 41875, "name": "GOKTURK 1A", "group": "resource", "lat": -48.55707901815132, "lon": -104.24621369579079, "alt_km": 691.5987603423782, "timestamp": "2025-12-20T03:42:47.049569+00:00", "meta": {"OBJECT_NAME": "GOKTURK 1A", "OBJECT_ID": "2016-073A", "EPOCH": "2025-12-19T19:43:45.518304", "MEAN_MOTION": 14.6278748, "ECCENTRICITY": 0.0001253, "INCLINATION": 98.1435, "RA_OF_ASC_NODE": 246.0926, "ARG_OF_PERICENTER": 81.1844, "MEAN_ANOMALY": 278.95, "EPHEMERIS_TYPE": 0, "CLASSIFICATION_TYPE": "U", "NORAD_CAT_ID": 41875, "ELEMENT_SET_NO": 999, "REV_AT_EPOCH": 48260, "BSTAR": 8.7004e-05, "MEAN_MOTION_DOT": 3.97e-06, "MEAN_MOTION_DDOT": 0}, "tle": {"line1": "1 41875U 16073A   25353.82205461  .00000397  00000+0  87004-4 0  9999", "line2": "2 41875  98.1435 246.0926 0001253  81.1844 278.9500 14.62787480482601"}}, "geometry": {"type": "Point", "coordinates": [-104.24621369579079, -48.55707901815132]}}, {"type": "Feature", "properties": {"norad_id": 41877, "name": "RESOURCESAT-2A", "group": "resource", "lat": -17.575293900539524, "lon": 66.77208714633527, "alt_km": 825.3451608798841, "timestamp": "2025-12-20T03:42:47.049579+00:00", "meta": {"OBJECT_NAME": "RESOURCESAT-2A", "OBJECT_ID": "2016-074A", "EPOCH": "2025-12-19T19:21:02.287872", "MEAN_MOTION": 14.21602525, "ECCENTRICITY": 0.0001371, "INCLINATION": 98.7755, "RA_OF_ASC_NODE": 63.6213, "ARG_OF_PERICENTER": 222.0928, "MEAN_ANOMALY": 138.0144, "EPHEMERIS_TYPE": 0, "CLASSIFICATION_TYPE": "U", "NORAD_CAT_ID": 41877, "ELEMENT_SET_NO": 999, "REV_AT_EPOCH": 46881, "BSTAR": 6.0564e-05, "MEAN_MOTION_DOT": 8.8e-07, "MEAN_MOTION_DDOT": 0}, "tle": {"line1": "1 41877U 16074A   25353.80627648  .00000088  00000+0  60564-4 0  9994", "line2": "2 41877  98.7755  63.6213 0001371 222.0928 138.0144 14.21602525468814"}}, "geometry": {"type": "Point", "coordinates": [66.77208714633527, -17.575293900539524]}}, {"type": "Feature", "properties": {"norad_id": 41948, "name": "CARTOSAT-2D", "group": "resource", "lat": 70.51761176918401, "lon": 29.866042885745305, "alt_km": 499.64786146739425, "timestamp": "2025-12-20T03:42:47.049589+00:00", "meta": {"OBJECT_NAME": "CARTOSAT-2D", "OBJECT_ID": "2017-008A", "EPOCH": "2025-12-19T21:04:29.537760", "MEAN_MOTION": 15.19324581, "ECCENTRICITY": 0.0005286, "INCLINATION": 97.4387, "RA_OF_ASC_NODE": 51.2673, "ARG_OF_PERICENTER": 139.9201, "MEAN_ANOMALY": 220.2424, "EPHEMERIS_TYPE": 0, "CLASSIFICATION_TYPE": "U", "NORAD_CAT_ID": 41948, "ELEMENT_SET_NO": 999, "REV_AT_EPOCH": 49035, "BSTAR": 0.00013653, "MEAN_MOTION_DOT": 2.816e-05, "MEAN_MOTION_DDOT": 0}, "tle": {"line1": "1 41948U 17008A   25353.87811965  .00002816  00000+0  13653-3 0  9992", "line2": "2 41948  97.4387  51.2673 0005286 139.9201 220.2424 15.19324581490352"}}, "geometry": {"type": "Point", "coordinates": [29.866042885745305, 70.51761176918401]}}, {"type": "Feature", "properties": {"norad_id": 42063, "name": "SENTINEL-2B", "group": "resource", "lat": -16.36043512251474, "lon": -116.0406600208164, "alt_km": 794.0412378376413, "timestamp": "2025-12-20T03:42:47.049599+00:00", "meta": {"OBJECT_NAME": "SENTINEL-2B", "OBJECT_ID": "2017-013A", "EPOCH": "2025-12-19T20:05:04.752384", "MEAN_MOTION": 14.30812537, "ECCENTRICITY": 0.0001177, "INCLINATION": 98.5715, "RA_OF_ASC_NODE": 66.1837, "ARG_OF_PERICENTER": 91.7517, "MEAN_ANOMALY": 268.3801, "EPHEMERIS_TYPE": 0, "CLASSIFICATION_TYPE": "U", "NORAD_CAT_ID": 42063, "ELEMENT_SET_NO": 999, "REV_AT_EPOCH": 45899, "BSTAR": -2.2582e-05, "MEAN_MOTION_DOT": -1.03e-06, "MEAN_MOTION_DDOT": 0}, "tle": {"line1": "1 42063U 17013A   25353.83686056 -.00000103  00000+0 -22582-4 0  9995", "line2": "2 42063  98.5715  66.1837 0001177  91.7517 268.3801 14.30812537458996"}}, "geometry": {"type": "Point", "coordinates": [-116.0406600208164, -16.36043512251474]}}, {"type": "Feature", "properties": {"norad_id": 42767, "name": "CARTOSAT-2E", "group": "resource", "lat": -18.685972991832553, "lon": 54.18350543463439, "alt_km": 514.4749657501397, "timestamp": "2025-12-20T03:42:47.049643+00:00", "meta": {"OBJECT_NAME": "CARTOSAT-2E", "OBJECT_ID": "2017-036C", "EPOCH": "2025-12-19T21:28:22.836864", "MEAN_MOTION": 15.19264161, "ECCENTRICITY": 0.0002404, "INCLINATION": 97.4556, "RA_OF_ASC_NODE": 51.3884, "ARG_OF_PERICENTER": 202.6923, "MEAN_ANOMALY": 157.4206, "EPHEMERIS_TYPE": 0, "CLASSIFICATION_TYPE": "U", "NORAD_CAT_ID": 42767, "ELEMENT_SET_NO": 999, "REV_AT_EPOCH": 47092, "BSTAR": 0.00013442, "MEAN_MOTION_DOT": 2.766e-05, "MEAN_MOTION_DDOT": 0}, "tle": {"line1": "1 42767U 17036C   25353.89470876  .00002766  00000+0  13442-3 0  9997", "line2": "2 42767  97.4556  51.3884 0002404 202.6923 157.4206 15.19264161470920"}}, "geometry": {"type": "Point", "coordinates": [54.18350543463439, -18.685972991832553]}}, {"type": "Feature", "properties": {"norad_id": 42920, "name": "FORMOSAT-5", "group": "resource", "lat": 13.097974987966653, "lon": 66.39174077415268, "alt_km": 725.0984437947227, "timestamp": "2025-12-20T03:42:47.049658+00:00", "meta": {"OBJECT_NAME": "FORMOSAT-5", "OBJECT_ID": "2017-049A", "EPOCH": "2025-12-19T19:22:33.125376", "MEAN_MOTION": 14.50764426, "ECCENTRICITY": 0.0009843, "INCLINATION": 98.2446, "RA_OF_ASC_NODE": 67.9847, "ARG_OF_PERICENTER": 277.5488, "MEAN_ANOMALY": 82.4588, "EPHEMERIS_TYPE": 0, "CLASSIFICATION_TYPE": "U", "NORAD_CAT_ID": 42920, "ELEMENT_SET_NO": 999, "REV_AT_EPOCH": 44066, "BSTAR": 4.7583e-05, "MEAN_MOTION_DOT": 1.43e-06, "MEAN_MOTION_DDOT": 0}, "tle": {"line1": "1 42920U 17049A   25353.80732784  .00000143  00000+0  47583-4 0  9993", "line2": "2 42920  98.2446  67.9847 0009843 277.5488  82.4588 14.50764426440662"}}, "geometry": {"type": "Point", "coordinates": [66.39174077415268, 13.097974987966653]}}, {"type": "Feature", "properties": {"norad_id": 42969, "name": "SENTINEL-5P", "group": "resource", "lat": -65.55482976055798, "lon": -47.45192452713886, "alt_km": 834.8455157091348, "timestamp": "2025-12-20T03:42:47.049669+00:00", "meta": {"OBJECT_NAME": "SENTINEL-5P", "OBJECT_ID": "2017-064A", "EPOCH": "2025-12-19T14:29:43.433088", "MEAN_MOTION": 14.1951907, "ECCENTRICITY": 0.000102, "INCLINATION": 98.7794, "RA_OF_ASC_NODE": 292.1275, "ARG_OF_PERICENTER": 90.2073, "MEAN_ANOMALY": 269.922, "EPHEMERIS_TYPE": 0, "CLASSIFICATION_TYPE": "U", "NORAD_CAT_ID": 42969, "ELEMENT_SET_NO": 999, "REV_AT_EPOCH": 42408, "BSTAR": 3.7143e-05, "MEAN_MOTION_DOT": 3.4e-07, "MEAN_MOTION_DDOT": 0}, "tle": {"line1": "1 42969U 17064A   25353.60397492  .00000034  00000+0  37143-4 0  9994", "line2": "2 42969  98.7794 292.1275 0001020  90.2073 269.9220 14.19519070424083"}}, "geometry": {"type": "Point", "coordinates": [-47.45192452713886, -65.55482976055798]}}]}